[{"OBJECT_NAME":"STARLINK-5309","OBJECT_ID":"2023-010AT","EPOCH":"2026-03-09T23:30:49.083264","MEAN_MOTION":14.98327794,"ECCENTRICITY":0.00025319,"INCLINATION":70.0019,"RA_OF_ASC_NODE":3.8092,"ARG_OF_PERICENTER":272.8662,"MEAN_ANOMALY":87.2208,"EPHEMERIS_TYPE":0,"CLASSIFICATION_TYPE":"U","NORAD_CAT_ID":55310,"ELEMENT_SET_NO":999,"REV_AT_EPOCH":17381,"BSTAR":-6.3457602e-5,"MEAN_MOTION_DOT":-8.5e-6,"MEAN_MOTION_DDOT":0},{"OBJECT_NAME":"W-SERIES 4","OBJECT_ID":"2025-135R","EPOCH":"2026-03-09T19:54:39.716640","MEAN_MOTION":15.01503849,"ECCENTRICITY":0.04025811,"INCLINATION":97.4458,"RA_OF_ASC_NODE":182.1022,"ARG_OF_PERICENTER":65.9998,"MEAN_ANOMALY":298.2822,"EPHEMERIS_TYPE":0,"CLASSIFICATION_TYPE":"U","NORAD_CAT_ID":64543,"ELEMENT_SET_NO":999,"REV_AT_EPOCH":3954,"BSTAR":0.00063083397,"MEAN_MOTION_DOT":0.00052628,"MEAN_MOTION_DDOT":2.148409e-6}]
